GLOBALSTAR M057 [-]     
1 25943U 99058A   23293.33702185 -.00000025  00000+0  61811-3 0  9999
2 25943  51.9973 267.5178 0002268 201.5678 158.5076 12.24775914 92692
GLOBALSTAR M059 [-]     
1 25944U 99058B   23293.52102177 -.00000092  00000+0 -77791-4 0  9996
2 25944  52.0040  45.6536 0000723 140.1029 301.7139 11.99954077501333
GLOBALSTAR M056 [-]     
1 25945U 99058C   23293.53322378 -.00000070  00000+0  20001-3 0  9991
2 25945  51.9972  63.1408 0001576  85.7189 353.1702 12.04770421 89623
GLOBALSTAR M031 [-]     
1 25946U 99058D   23293.63799488 -.00000152  00000+0 -62832-3 0  9993
2 25946  51.9989 351.4079 0001663  42.4039 124.0949 12.15997797 90876
GLOBALSTAR M039 [-]     
1 25961U 99062A   23293.50276942 -.00000045  00000+0  32686-3 0  9990
2 25961  51.9851 313.4257 0003114  85.3791 274.7432 12.62272410103720
GLOBALSTAR M034 [-]     
1 25962U 99062B   23293.93821073 -.00000071  00000+0  16101-3 0  9992
2 25962  51.9844 144.6436 0013921 342.8024 126.6653 11.79416234 66979
GLOBALSTAR M029 [-]     
1 25963U 99062C   23293.50966453 -.00000052  00000+0  42796-3 0  9996
2 25963  51.9799 294.2420 0002821  13.0633 160.9925 11.99869093 96416
GLOBALSTAR M061 [-]     
1 25964U 99062D   23293.51818174 -.00000057  00000+0  38742-3 0  9995
2 25964  51.9805 321.7478 0005768 267.4267 261.0989 11.76751899 50169
